              M50 Cartesian                         M50 Keplerian  
    -----------------------------------       --------------------------------
     X    =       -3612911.71                 A    =         6785019.55  meter
     Y    =        4822269.36  meter          E    =           .0003880
     Z    =       -3118737.68                 I    =           51.81959
     XDOT =      -5784.851971                 Wp   =           50.13826
     YDOT =      -1176.391644  meter/sec      RA   =          150.85836  deg
     ZDOT =       4888.968172                 TA   =          274.07553
                                              MA   =          274.11988
                                              Ha   =            220.472  n.mi
                                              Hp   =            215.077
 
              M50 Cartesian                         J2K Cartesian  
    -----------------------------------       --------------------------------
     X    =      -11853384.87                 X    =        -3651417.69
     Y    =       15821093.70  feet           Y    =         4781651.74  meter
     Z    =      -10232078.99                 Z    =        -3136382.14
     XDOT =     -18979.173133                 XDOT =       -5795.015553
     YDOT =      -3859.552637  feet/sec       YDOT =       -1241.137997  meter/sec
     ZDOT =      16039.921825                 ZDOT =        4860.842584
 
              TDR Cartesian                         TDR Cartesian  
    -----------------------------------       --------------------------------
     X    =       -6173874.51                 X    =        -1881796.95
     Y    =      -18737747.52  feet           Y    =        -5711265.45  meter
     Z    =      -10309474.78                 Z    =        -3142327.91
     XDOT =      12756.317894                 XDOT =        3888.125694
     YDOT =     -12949.523647  feet/sec       YDOT =       -3947.014808  meter/sec
     ZDOT =      15917.944372                 ZDOT =        4851.789445
  
  
    The mean element set is posted at the UTC for which position is
    just north of the next ascending node relative to the above
    vector time
 
 
    TWO LINE MEAN ELEMENT SET
  
    ISS
    1 25544U 98067A   16078.17209663  .00016717  00000-0  10270-3 0  9047
    2 25544  51.6394 151.9546 0002062 315.4376  44.6611 15.54170069 30823
  
  
    Satellite: ISS
    Catalog Number: 25544
    Epoch time:      16078.17209663   =   yrday.fracday
    Element set:     904
    Inclination:       51.6394  deg
    RA of node:       151.9546  deg
    Eccentricity:     .0002062     
    Arg of perigee:   315.4376  deg
    Mean anomaly:      44.6611  deg
    Mean motion:   15.54170069  rev/day
    Decay rate:    1.67170E-04  rev/day^2
    Epoch rev:            3082
    Checksum:              304
 
 
    Coasting Arc #6 (Orbit 3093)
    ---------------------------------------
 
    Vector Time (GMT): 2016/078/21:26:42.000
    Vector Time (MET): N/A
    Weight (LBS)     : 890369.9
 
              M50 Cartesian                         M50 Keplerian  
    -----------------------------------       --------------------------------
     X    =       -3249256.58                 A    =         6777496.85  meter
     Y    =       -2810773.10  meter          E    =           .0001855
     Z    =        5240318.77                 I    =           51.81704
     XDOT =       5889.440548                 Wp   =          104.97962
     YDOT =      -4793.841731  meter/sec      RA   =          147.27521  deg
     ZDOT =       1079.663644                 TA   =          334.69993
                                              MA   =          334.70901
                                              Ha   =            220.561  n.mi
                                              Hp   =            215.026
 
              M50 Cartesian                         J2K Cartesian  
    -----------------------------------       --------------------------------
     X    =      -10660290.62                 X    =        -3243039.23
     Y    =       -9221696.53  feet           Y    =        -2847073.06  meter
     Z    =       17192646.87                 Z    =         5224550.32
     XDOT =      19322.311508                 XDOT =        5937.364286
     YDOT =     -15727.827201  feet/sec       YDOT =       -4727.714006  meter/sec
     ZDOT =       3542.203555                 ZDOT =        1108.389690
 
              TDR Cartesian                         TDR Cartesian  
    -----------------------------------       --------------------------------
     X    =        1759289.38                 X    =          536231.40
     Y    =       14068466.62  feet           Y    =         4288068.63  meter
     Z    =       17124594.51                 Z    =         5219576.41
     XDOT =     -23832.999328                 XDOT =       -7264.298195
     YDOT =      -1487.279410  feet/sec       YDOT =        -453.322764  meter/sec
     ZDOT =       3667.738326                 ZDOT =        1117.926642
  
  
    The mean element set is posted at the UTC for which position is
    just north of the next ascending node relative to the above
    vector time
 
 
    TWO LINE MEAN ELEMENT SET
  
    ISS
    1 25544U 98067A   16078.94369747  .00016717  00000-0  10270-3 0  9053
    2 25544  51.6415 148.1109 0002180 319.5852  40.5138 15.54218754 30941
  
  
    Satellite: ISS
    Catalog Number: 25544
    Epoch time:      16078.94369747   =   yrday.fracday
    Element set:     905
    Inclination:       51.6415  deg
    RA of node:       148.1109  deg
    Eccentricity:     .0002180     
    Arg of perigee:   319.5852  deg
    Mean anomaly:      40.5138  deg
    Mean motion:   15.54218754  rev/day
    Decay rate:    1.67170E-04  rev/day^2
    Epoch rev:            3094
    Checksum:              318
 
 
    Coasting Arc #7 (Orbit 3096)
    ---------------------------------------
 
    Vector Time (GMT): 2016/079/03:11:47.000
    Vector Time (MET): N/A
    Weight (LBS)     : 905478.2
 
              M50 Cartesian                         M50 Keplerian  
    -----------------------------------       --------------------------------
     X    =       -4581031.74                 A    =         6787871.69  meter
     Y    =        4702021.93  meter          E    =           .0008215
     Z    =       -1710003.16                 I    =           51.85674
     XDOT =      -4540.789296                 Wp   =           23.35293
     YDOT =      -2352.231554  meter/sec      RA   =          146.05730  deg
     ZDOT =       5713.356792                 TA   =          317.95307
                                              MA   =          318.01609
                                              Ha   =            220.458  n.mi
                                              Hp   =            215.080
 
              M50 Cartesian                         J2K Cartesian  
    -----------------------------------       --------------------------------
     X    =      -15029631.69                 X    =        -4624964.09
     Y    =       15426581.13  feet           Y    =         4650547.93  meter
     Z    =       -5610246.59                 Z    =        -1732363.68
     XDOT =     -14897.602676                 XDOT =       -4541.901267
     YDOT =      -7717.295126  feet/sec       YDOT =       -2403.015190  meter/sec
     ZDOT =      18744.608896                 ZDOT =        5691.296637
 
              TDR Cartesian                         TDR Cartesian  
    -----------------------------------       --------------------------------
     X    =          -5757.63                 X    =           -1754.92
     Y    =      -21511890.74  feet           Y    =        -6556824.30  meter
     Z    =       -5708119.19                 Z    =        -1739834.73
     XDOT =      14576.786386                 XDOT =        4443.004490
     YDOT =      -4938.089191  feet/sec       YDOT =       -1505.129585  meter/sec
     ZDOT =      18649.152239                 ZDOT =        5684.261602
  
  
    The mean element set is posted at the UTC for which position is
    just north of the next ascending node relative to the above
    vector time
 
 
    TWO LINE MEAN ELEMENT SET
  
    ISS
    1 25544U 98067A   16079.13659593  .00016717  00000-0  10270-3 0  9067
    2 25544  51.6403 147.1476 0002196 318.1509  41.9475 15.54187173 30977
  
  
    Satellite: ISS
    Catalog Number: 25544
    Epoch time:      16079.13659593   =   yrday.fracday
    Element set:     906
    Inclination:       51.6403  deg
    RA of node:       147.1476  deg
    Eccentricity:     .0002196     
    Arg of perigee:   318.1509  deg
    Mean anomaly:      41.9475  deg
    Mean motion:   15.54187173  rev/day
    Decay rate:    1.67170E-04  rev/day^2
    Epoch rev:            3097
    Checksum:              328
 
 
    Coasting Arc #8 (Orbit 3112)
    ---------------------------------------
 
    Vector Time (GMT): 2016/080/03:11:47.000
    Vector Time (MET): N/A
    Weight (LBS)     : 905478.2
 
              M50 Cartesian                         M50 Keplerian  
    -----------------------------------       --------------------------------
     X    =        5292583.19                 A    =         6789039.20  meter
     Y    =       -4244788.26  meter          E    =           .0009883
     Z    =         -25258.30                 I    =           51.88750
     XDOT =       2947.774317                 Wp   =          132.07010
     YDOT =       3702.285013  meter/sec      RA   =          141.10216  deg
     ZDOT =      -6032.707040                 TA   =           48.20101
                                              MA   =           48.11662
                                              Ha   =            220.535  n.mi
                                              Hp   =            214.954
 
